IRIDIUM 112             
1 41925U 17003J   25058.56807948  .00000146  00000+0  45054-4 0  9991
2 41925  86.3929 286.6257 0001989  92.4026 267.7398 14.34218912425240
IRIDIUM 111             
1 41926U 17003K   25058.48562656  .00000050  00000+0  10893-4 0  9994
2 41926  86.3932 286.7203 0002218  84.5294 275.6154 14.34216658425212
IRIDIUM 113             
1 42803U 17039A   25058.53536029  .00000158  00000+0  49494-4 0  9997
2 42803  86.4041 160.5588 0002283 107.8860 252.2585 14.34218642403157
IRIDIUM 120             
1 42805U 17039C   25058.52901758  .00000038  00000+0  64860-5 0  9995
2 42805  86.4035 160.4059 0002081  89.4709 270.6725 14.34218056403145
IRIDIUM 115             
1 42806U 17039D   25058.54898954  .00001209  00000+0  35337-3 0  9997
2 42806  86.4569 160.4603 0002724  87.1938 272.9575 14.43282668405809
IRIDIUM 118             
1 42807U 17039E   25058.60855179  .00000191  00000+0  61083-4 0  9994
2 42807  86.4030 191.9441 0002024  98.7249 261.4176 14.34218552401939
IRIDIUM 117             
1 42808U 17039F   25058.62757917  .00000136  00000+0  41600-4 0  9990
2 42808  86.4027 191.8982 0002368  91.3633 268.7834 14.34218954401962
